ONEWEB-0094             
1 45450U 20020AC  24139.08396688  .00000033  00000+0  51584-4 0  9991
2 45450  87.9168 157.1261 0001974  97.0238 263.1118 13.17649094206219
ONEWEB-0087             
1 45451U 20020AD  24139.11153052 -.00000325  00000+0 -95196-3 0  9994
2 45451  87.8969 172.2455 0001880 100.7793 259.3547 13.11479680202973
ONEWEB-0082             
1 45452U 20020AE  24139.11266924 -.00000234  00000+0 -69448-3 0  9998
2 45452  87.8976 172.2486 0002079  94.8929 265.2436 13.11559086203064
ONEWEB-0050             
1 45453U 20020AF  24139.43783382  .00010412  00000+0  10908-2 0  9999
2 45453  88.0056  35.6774 0003557 139.9088 220.2403 14.89494390227195
ONEWEB-0034             
1 45454U 20020AG  24138.82860275 -.00000396  00000+0 -11554-2 0  9999
2 45454  87.8980 172.3237 0002019  95.1703 264.9656 13.11303407202933
ONEWEB-0060             
1 45455U 20020AH  24138.83641369  .00000188  00000+0  49548-3 0  9994
2 45455  87.8982 172.3208 0001867  95.1939 264.9402 13.11356921202898
ONEWEB-0086             
1 45456U 20020AJ  24138.85426737  .00000583  00000+0  16106-2 0  9999
2 45456  87.8976 172.3200 0001899 107.2307 252.9029 13.11359242202951
ONEWEB-0088             
1 45457U 20020AK  24139.13716738  .00000025  00000+0  35935-4 0  9999
2 45457  87.8974 172.2305 0001938  95.7202 264.4147 13.11290656202934
